{
  "type": "FeatureCollection",
  "features": [
    {
      "type": "Feature",
      "properties": {
        "norad_id": 31053,
        "name": "FENGYUN 1C DEB",
        "group": "fengyun-1c-debris",
        "lat": 6.175782615452016,
        "lon": 101.87993428499499,
        "alt_km": 1041.2634413424184,
        "timestamp": "2025-12-05T19:30:25.845858+00:00",
        "meta_object_name": "FENGYUN 1C DEB",
        "meta_object_id": "1999-025BEX",
        "meta_epoch": "2025-12-04T13:48:17.349120",
        "meta_mean_motion": 13.75813193,
        "meta_eccentricity": 0.0309552,
        "meta_inclination": 98.7941,
        "meta_ra_of_asc_node": 101.6953,
        "meta_arg_of_pericenter": 116.7841,
        "meta_mean_anomaly": 246.5331,
        "meta_ephemeris_type": 0,
        "meta_classification_type": "U",
        "meta_norad_cat_id": 31053,
        "meta_element_set_no": 999,
        "meta_rev_at_epoch": 93364,
        "meta_bstar": 0.0042775,
        "meta_mean_motion_dot": 5.844e-05,
        "meta_mean_motion_ddot": 0,
        "tle_line1": "1 31053U 99025BEX 25338.57520080  .00005844  00000+0  42775-2 0  9992",
        "tle_line2": "2 31053  98.7941 101.6953 0309552 116.7841 246.5331 13.75813193933649"
      },
      "geometry": {
        "type": "Point",
        "coordinates": [
          101.87993428499499,
          6.175782615452016
        ]
      }
    },
    {
      "type": "Feature",
      "properties": {
        "norad_id": 31054,
        "name": "FENGYUN 1C DEB",
        "group": "fengyun-1c-debris",
        "lat": -32.34413109623048,
        "lon": -1.3857480558763833,
        "alt_km": 865.4451539206475,
        "timestamp": "2025-12-05T19:30:25.845868+00:00",
        "meta_object_name": "FENGYUN 1C DEB",
        "meta_object_id": "1999-025BEY",
        "meta_epoch": "2025-12-03T19:12:09.872064",
        "meta_mean_motion": 14.1216148,
        "meta_eccentricity": 0.00104061,
        "meta_inclination": 98.6907,
        "meta_ra_of_asc_node": 351.1051,
        "meta_arg_of_pericenter": 143.9107,
        "meta_mean_anomaly": 37.1149,
        "meta_ephemeris_type": 0,
        "meta_classification_type": "U",
        "meta_norad_cat_id": 31054,
        "meta_element_set_no": 999,
        "meta_rev_at_epoch": 96637,
        "meta_bstar": 0.00024826457,
        "meta_mean_motion_dot": 4.13e-06,
        "meta_mean_motion_ddot": 0,
        "tle_line1": "1 31054U 99025BEY 25337.80011426  .00000413  00000+0  24826-3 0  9992",
        "tle_line2": "2 31054  98.6907 351.1051 0010406 143.9107  37.1149 14.12161480966370"
      },
      "geometry": {
        "type": "Point",
        "coordinates": [
          -1.3857480558763833,
          -32.34413109623048
        ]
      }
    },
    {
      "type": "Feature",
      "properties": {
        "norad_id": 31055,
        "name": "FENGYUN 1C DEB",
        "group": "fengyun-1c-debris",
        "lat": 44.466335394376266,
        "lon": -160.0929121986467,
        "alt_km": 870.3683152418544,
        "timestamp": "2025-12-05T19:30:25.845878+00:00",
        "meta_object_name": "FENGYUN 1C DEB",
        "meta_object_id": "1999-025BEZ",
        "meta_epoch": "2025-12-05T02:08:09.267360",
        "meta_mean_motion": 14.10363071,
        "meta_eccentricity": 0.00240263,
        "meta_inclination": 98.7607,
        "meta_ra_of_asc_node": 10.4964,
        "meta_arg_of_pericenter": 294.4739,
        "meta_mean_anomaly": 127.4965,
        "meta_ephemeris_type": 0,
        "meta_classification_type": "U",
        "meta_norad_cat_id": 31055,
        "meta_element_set_no": 999,
        "meta_rev_at_epoch": 96014,
        "meta_bstar": 0.00058783011,
        "meta_mean_motion_dot": 1.003e-05,
        "meta_mean_motion_ddot": 0,
        "tle_line1": "1 31055U 99025BEZ 25339.08899615  .00001003  00000+0  58783-3 0  9994",
        "tle_line2": "2 31055  98.7607  10.4964 0024026 294.4739 127.4965 14.10363071960149"
      },
      "geometry": {
        "type": "Point",
        "coordinates": [
          -160.0929121986467,
          44.466335394376266
        ]
      }
    },
    {
      "type": "Feature",
      "properties": {
        "norad_id": 31056,
        "name": "FENGYUN 1C DEB",
        "group": "fengyun-1c-debris",
        "lat": 0.007574421756105145,
        "lon": -37.423038572328274,
        "alt_km": 828.8560774663129,
        "timestamp": "2025-12-05T19:30:25.845888+00:00",
        "meta_object_name": "FENGYUN 1C DEB",
        "meta_object_id": "1999-025BFA",
        "meta_epoch": "2025-12-03T10:31:26.895936",
        "meta_mean_motion": 14.14283138,
        "meta_eccentricity": 0.0026031,
        "meta_inclination": 98.6671,
        "meta_ra_of_asc_node": 320.2748,
        "meta_arg_of_pericenter": 9.4767,
        "meta_mean_anomaly": 148.9014,
        "meta_ephemeris_type": 0,
        "meta_classification_type": "U",
        "meta_norad_cat_id": 31056,
        "meta_element_set_no": 999,
        "meta_rev_at_epoch": 96686,
        "meta_bstar": 0.0005329074,
        "meta_mean_motion_dot": 9.78e-06,
        "meta_mean_motion_ddot": 0,
        "tle_line1": "1 31056U 99025BFA 25337.43850574  .00000978  00000+0  53291-3 0  9992",
        "tle_line2": "2 31056  98.6671 320.2748 0026031   9.4767 148.9014 14.14283138966862"
      },
      "geometry": {
        "type": "Point",
        "coordinates": [
          -37.423038572328274,
          0.007574421756105145
        ]
      }
    },
    {
      "type": "Feature",
      "properties": {
        "norad_id": 31057,
        "name": "FENGYUN 1C DEB",
        "group": "fengyun-1c-debris",
        "lat": 66.92126370587386,
        "lon": -4.323342916170592,
        "alt_km": 713.2647114260926,
        "timestamp": "2025-12-05T19:30:25.845899+00:00",
        "meta_object_name": "FENGYUN 1C DEB",
        "meta_object_id": "1999-025BFB",
        "meta_epoch": "2025-11-15T08:50:16.083744",
        "meta_mean_motion": 14.78766925,
        "meta_eccentricity": 0.01394535,
        "meta_inclination": 99.2623,
        "meta_ra_of_asc_node": 354.6749,
        "meta_arg_of_pericenter": 337.6801,
        "meta_mean_anomaly": 21.8374,
        "meta_ephemeris_type": 0,
        "meta_classification_type": "U",
        "meta_norad_cat_id": 31057,
        "meta_element_set_no": 999,
        "meta_rev_at_epoch": 61548,
        "meta_bstar": 0.0011048389,
        "meta_mean_motion_dot": 9.496e-05,
        "meta_mean_motion_ddot": 0,
        "tle_line1": "1 31057U 99025BFB 25319.36824171  .00009496  00000+0  11048-2 0  9996",
        "tle_line2": "2 31057  99.2623 354.6749 0139453 337.6801  21.8374 14.78766925615484"
      },
      "geometry": {
        "type": "Point",
        "coordinates": [
          -4.323342916170592,
          66.92126370587386
        ]
      }
    },
    {
      "type": "Feature",
      "properties": {
        "norad_id": 31058,
        "name": "FENGYUN 1C DEB",
        "group": "fengyun-1c-debris",
        "lat": -47.092088681794316,
        "lon": -61.72744857798426,
        "alt_km": 714.609519726836,
        "timestamp": "2025-12-05T19:30:25.845909+00:00",
        "meta_object_name": "FENGYUN 1C DEB",
        "meta_object_id": "1999-025BFC",
        "meta_epoch": "2025-11-30T14:27:22.580352",
        "meta_mean_motion": 14.76018692,
        "meta_eccentricity": 0.0094738,
        "meta_inclination": 99.5638,
        "meta_ra_of_asc_node": 281.6638,
        "meta_arg_of_pericenter": 143.0864,
        "meta_mean_anomaly": 217.691,
        "meta_ephemeris_type": 0,
        "meta_classification_type": "U",
        "meta_norad_cat_id": 31058,
        "meta_element_set_no": 999,
        "meta_rev_at_epoch": 99370,
        "meta_bstar": 0.0011184,
        "meta_mean_motion_dot": 8.226e-05,
        "meta_mean_motion_ddot": 0,
        "tle_line1": "1 31058U 99025BFC 25334.60234468  .00008226  00000+0  11184-2 0  9996",
        "tle_line2": "2 31058  99.5638 281.6638 0094738 143.0864 217.6910 14.76018692993708"
      },
      "geometry": {
        "type": "Point",
        "coordinates": [
          -61.72744857798426,
          -47.092088681794316
        ]
      }
    },
    {
      "type": "Feature",
      "properties": {
        "norad_id": 31062,
        "name": "FENGYUN 1C DEB",
        "group": "fengyun-1c-debris",
        "lat": 70.2414698186295,
        "lon": 8.752677799750623,
        "alt_km": 1054.642273570783,
        "timestamp": "2025-12-05T19:30:25.845919+00:00",
        "meta_object_name": "FENGYUN 1C DEB",
        "meta_object_id": "1999-025BFG",
        "meta_epoch": "2025-12-03T11:16:21.393984",
        "meta_mean_motion": 13.75683506,
        "meta_eccentricity": 0.01718974,
        "meta_inclination": 98.9971,
        "meta_ra_of_asc_node": 160.3686,
        "meta_arg_of_pericenter": 342.5381,
        "meta_mean_anomaly": 45.6643,
        "meta_ephemeris_type": 0,
        "meta_classification_type": "U",
        "meta_norad_cat_id": 31062,
        "meta_element_set_no": 999,
        "meta_rev_at_epoch": 94106,
        "meta_bstar": 0.00038350124,
        "meta_mean_motion_dot": 3.71e-06,
        "meta_mean_motion_ddot": 0,
        "tle_line1": "1 31062U 99025BFG 25337.46969206  .00000371  00000+0  38350-3 0  9991",
        "tle_line2": "2 31062  98.9971 160.3686 0171897 342.5381  45.6643 13.75683506941068"
      },
      "geometry": {
        "type": "Point",
        "coordinates": [
          8.752677799750623,
          70.2414698186295
        ]
      }
    }
  ]
}